CCSDS_OMM_VERS = 2.0
CREATION_DATE  = 
ORIGINATOR     = 

OBJECT_NAME    = STARLINK-36626
OBJECT_ID      = 2026-018Q
CENTER_NAME    = EARTH
REF_FRAME      = TEME
TIME_SYSTEM    = UTC
MEAN_ELEMENT_THEORY = SGP/SGP4

EPOCH          = 2026-02-17T14:00:01.999872
MEAN_MOTION    = 15.77530908
ECCENTRICITY   = .00014142
INCLINATION    = 97.2841
RA_OF_ASC_NODE = 113.4257
ARG_OF_PERICENTER = 69.7636
MEAN_ANOMALY   = 322.7388

EPHEMERIS_TYPE = 0
CLASSIFICATION_TYPE = U
NORAD_CAT_ID   = 67603
ELEMENT_SET_NO = 999
REV_AT_EPOCH   = 411
BSTAR          = -.14077659E-1
MEAN_MOTION_DOT = -.2011302E-1
MEAN_MOTION_DDOT = 0

CCSDS_OMM_VERS = 2.0
CREATION_DATE  = 
ORIGINATOR     = 

OBJECT_NAME    = STARLINK-36605
OBJECT_ID      = 2026-018R
CENTER_NAME    = EARTH
REF_FRAME      = TEME
TIME_SYSTEM    = UTC
MEAN_ELEMENT_THEORY = SGP/SGP4

EPOCH          = 2026-02-17T12:45:09.972288
MEAN_MOTION    = 15.75224154
ECCENTRICITY   = .00010795
INCLINATION    = 97.2843
RA_OF_ASC_NODE = 113.3308
ARG_OF_PERICENTER = 88.6167
MEAN_ANOMALY   = 271.5222

EPHEMERIS_TYPE = 0
CLASSIFICATION_TYPE = U
NORAD_CAT_ID   = 67604
ELEMENT_SET_NO = 999
REV_AT_EPOCH   = 413
BSTAR          = .10067429E-2
MEAN_MOTION_DOT = .152976E-2
MEAN_MOTION_DDOT = 0

CCSDS_OMM_VERS = 2.0
CREATION_DATE  = 
ORIGINATOR     = 

OBJECT_NAME    = STARLINK-36281
OBJECT_ID      = 2026-018S
CENTER_NAME    = EARTH
REF_FRAME      = TEME
TIME_SYSTEM    = UTC
MEAN_ELEMENT_THEORY = SGP/SGP4

EPOCH          = 2026-02-17T12:22:14.028960
MEAN_MOTION    = 15.80900397
ECCENTRICITY   = .00014712
INCLINATION    = 97.2831
RA_OF_ASC_NODE = 113.3509
ARG_OF_PERICENTER = 114.5078
MEAN_ANOMALY   = 245.6344

EPHEMERIS_TYPE = 0
CLASSIFICATION_TYPE = U
NORAD_CAT_ID   = 67605
ELEMENT_SET_NO = 999
REV_AT_EPOCH   = 413
BSTAR          = .12397291E-2
MEAN_MOTION_DOT = .245059E-2
MEAN_MOTION_DDOT = 0

CCSDS_OMM_VERS = 2.0
CREATION_DATE  = 
ORIGINATOR     = 

OBJECT_NAME    = STARLINK-35843
OBJECT_ID      = 2026-018T
CENTER_NAME    = EARTH
REF_FRAME      = TEME
TIME_SYSTEM    = UTC
MEAN_ELEMENT_THEORY = SGP/SGP4

EPOCH          = 2026-02-17T14:00:01.999872
MEAN_MOTION    = 15.75138169
ECCENTRICITY   = .00011218
INCLINATION    = 97.2845
RA_OF_ASC_NODE = 113.3995
ARG_OF_PERICENTER = 84.4150
MEAN_ANOMALY   = 242.3506

EPHEMERIS_TYPE = 0
CLASSIFICATION_TYPE = U
NORAD_CAT_ID   = 67606
ELEMENT_SET_NO = 999
REV_AT_EPOCH   = 417
BSTAR          = .53802698E-3
MEAN_MOTION_DOT = .807E-3
MEAN_MOTION_DDOT = 0

CCSDS_OMM_VERS = 2.0
CREATION_DATE  = 
ORIGINATOR     = 

OBJECT_NAME    = STARLINK-36351
OBJECT_ID      = 2026-018U
CENTER_NAME    = EARTH
REF_FRAME      = TEME
TIME_SYSTEM    = UTC
MEAN_ELEMENT_THEORY = SGP/SGP4

EPOCH          = 2026-02-17T14:00:01.999872
MEAN_MOTION    = 15.77297638
ECCENTRICITY   = .00013042
INCLINATION    = 97.2843
RA_OF_ASC_NODE = 113.4321
ARG_OF_PERICENTER = 90.6702
MEAN_ANOMALY   = 312.1139

EPHEMERIS_TYPE = 0
CLASSIFICATION_TYPE = U
NORAD_CAT_ID   = 67607
ELEMENT_SET_NO = 999
REV_AT_EPOCH   = 417
BSTAR          = -.12208825E-1
MEAN_MOTION_DOT = -.1760628E-1
MEAN_MOTION_DDOT = 0

CCSDS_OMM_VERS = 2.0
CREATION_DATE  = 
ORIGINATOR     = 

OBJECT_NAME    = STARLINK-36411
OBJECT_ID      = 2026-018V
CENTER_NAME    = EARTH
REF_FRAME      = TEME
TIME_SYSTEM    = UTC
MEAN_ELEMENT_THEORY = SGP/SGP4

EPOCH          = 2026-02-17T13:45:57.592800
MEAN_MOTION    = 15.80893099
ECCENTRICITY   = .00004558
INCLINATION    = 97.2836
RA_OF_ASC_NODE = 113.4238
ARG_OF_PERICENTER = 119.8713
MEAN_ANOMALY   = 240.2600

EPHEMERIS_TYPE = 0
CLASSIFICATION_TYPE = U
NORAD_CAT_ID   = 67608
ELEMENT_SET_NO = 999
REV_AT_EPOCH   = 414
BSTAR          = .11645799E-2
MEAN_MOTION_DOT = .229715E-2
MEAN_MOTION_DDOT = 0

CCSDS_OMM_VERS = 2.0
CREATION_DATE  = 
ORIGINATOR     = 

OBJECT_NAME    = STARLINK-36312
OBJECT_ID      = 2026-018W
CENTER_NAME    = EARTH
REF_FRAME      = TEME
TIME_SYSTEM    = UTC
MEAN_ELEMENT_THEORY = SGP/SGP4

EPOCH          = 2026-02-17T14:00:01.999872
MEAN_MOTION    = 15.76783441
ECCENTRICITY   = .00014355
INCLINATION    = 97.2843
RA_OF_ASC_NODE = 113.4371
ARG_OF_PERICENTER = 78.2593
MEAN_ANOMALY   = 337.3672

EPHEMERIS_TYPE = 0
CLASSIFICATION_TYPE = U
NORAD_CAT_ID   = 67609
ELEMENT_SET_NO = 999
REV_AT_EPOCH   = 417
BSTAR          = -.12650982E-1
MEAN_MOTION_DOT = -.1780461E-1
MEAN_MOTION_DDOT = 0

CCSDS_OMM_VERS = 2.0
CREATION_DATE  = 
ORIGINATOR     = 

OBJECT_NAME    = STARLINK-36387
OBJECT_ID      = 2026-018X
CENTER_NAME    = EARTH
REF_FRAME      = TEME
TIME_SYSTEM    = UTC
MEAN_ELEMENT_THEORY = SGP/SGP4

EPOCH          = 2026-02-17T13:42:10.036800
MEAN_MOTION    = 15.80910896
ECCENTRICITY   = .00007582
INCLINATION    = 97.2837
RA_OF_ASC_NODE = 113.4271
ARG_OF_PERICENTER = 87.4137
MEAN_ANOMALY   = 272.7218

EPHEMERIS_TYPE = 0
CLASSIFICATION_TYPE = U
NORAD_CAT_ID   = 67610
ELEMENT_SET_NO = 999
REV_AT_EPOCH   = 414
BSTAR          = .12204273E-2
MEAN_MOTION_DOT = .241253E-2
MEAN_MOTION_DDOT = 0

CCSDS_OMM_VERS = 2.0
CREATION_DATE  = 
ORIGINATOR     = 

OBJECT_NAME    = STARLINK-36636
OBJECT_ID      = 2026-018Y
CENTER_NAME    = EARTH
REF_FRAME      = TEME
TIME_SYSTEM    = UTC
MEAN_ELEMENT_THEORY = SGP/SGP4

EPOCH          = 2026-02-17T14:00:01.999872
MEAN_MOTION    = 15.80777778
ECCENTRICITY   = .00013728
INCLINATION    = 97.2855
RA_OF_ASC_NODE = 113.4368
ARG_OF_PERICENTER = 96.7010
MEAN_ANOMALY   = 340.0654

EPHEMERIS_TYPE = 0
CLASSIFICATION_TYPE = U
NORAD_CAT_ID   = 67611
ELEMENT_SET_NO = 999
REV_AT_EPOCH   = 412
BSTAR          = .56480232E-3
MEAN_MOTION_DOT = .109218E-2
MEAN_MOTION_DDOT = 0

CCSDS_OMM_VERS = 2.0
CREATION_DATE  = 
ORIGINATOR     = 

OBJECT_NAME    = STARLINK-36407
OBJECT_ID      = 2026-018Z
CENTER_NAME    = EARTH
REF_FRAME      = TEME
TIME_SYSTEM    = UTC
MEAN_ELEMENT_THEORY = SGP/SGP4

EPOCH          = 2026-02-17T12:08:09.943296
MEAN_MOTION    = 15.80758666
ECCENTRICITY   = .00006536
INCLINATION    = 97.2838
RA_OF_ASC_NODE = 113.3639
ARG_OF_PERICENTER = 352.8683
MEAN_ANOMALY   = 7.2576

EPHEMERIS_TYPE = 0
CLASSIFICATION_TYPE = U
NORAD_CAT_ID   = 67612
ELEMENT_SET_NO = 999
REV_AT_EPOCH   = 418
BSTAR          = .17258062E-3
MEAN_MOTION_DOT = .32953E-3
MEAN_MOTION_DDOT = 0

CCSDS_OMM_VERS = 2.0
CREATION_DATE  = 
ORIGINATOR     = 

OBJECT_NAME    = STARLINK-36597
OBJECT_ID      = 2026-018AA
CENTER_NAME    = EARTH
REF_FRAME      = TEME
TIME_SYSTEM    = UTC
MEAN_ELEMENT_THEORY = SGP/SGP4

EPOCH          = 2026-02-17T13:37:50.300256
MEAN_MOTION    = 15.80875538
ECCENTRICITY   = .00011829
INCLINATION    = 97.2840
RA_OF_ASC_NODE = 113.4309
ARG_OF_PERICENTER = 35.8475
MEAN_ANOMALY   = 324.2873

EPHEMERIS_TYPE = 0
CLASSIFICATION_TYPE = U
NORAD_CAT_ID   = 67613
ELEMENT_SET_NO = 999
REV_AT_EPOCH   = 414
BSTAR          = .78623427E-3
MEAN_MOTION_DOT = .153554E-2
MEAN_MOTION_DDOT = 0

CCSDS_OMM_VERS = 2.0
CREATION_DATE  = 
ORIGINATOR     = 

OBJECT_NAME    = NEONSAT-1A
OBJECT_ID      = 2026-019A
CENTER_NAME    = EARTH
REF_FRAME      = TEME
TIME_SYSTEM    = UTC
MEAN_ELEMENT_THEORY = SGP/SGP4

EPOCH          = 2026-02-17T09:42:23.571936
MEAN_MOTION    = 15.07617915
ECCENTRICITY   = .0012097
INCLINATION    = 97.4103
RA_OF_ASC_NODE = 172.7115
ARG_OF_PERICENTER = 240.5681
MEAN_ANOMALY   = 119.4341

EPHEMERIS_TYPE = 0
CLASSIFICATION_TYPE = U
NORAD_CAT_ID   = 67614
ELEMENT_SET_NO = 999
REV_AT_EPOCH   = 276
BSTAR          = .24988266E-3
MEAN_MOTION_DOT = .375E-4
MEAN_MOTION_DDOT = 0

