STARLINK-36626          
1 67603U 26018Q   26048.58335648 -.02011302  00000+0 -14078-1 0  9992
2 67603  97.2841 113.4257 0001414  69.7636 322.7388 15.77530908  4119
STARLINK-36605          
1 67604U 26018R   26048.53136542  .00152976  00000+0  10067-2 0  9994
2 67604  97.2843 113.3308 0001079  88.6167 271.5222 15.75224154  4135
STARLINK-36281          
1 67605U 26018S   26048.51544015  .00245059  00000+0  12397-2 0  9994
2 67605  97.2831 113.3509 0001471 114.5078 245.6344 15.80900397  4135
STARLINK-35843          
1 67606U 26018T   26048.58335648  .00080700  00000+0  53803-3 0  9990
2 67606  97.2845 113.3995 0001121  84.4150 242.3506 15.75138169  4170
STARLINK-36351          
1 67607U 26018U   26048.58335648 -.01760628  00000+0 -12209-1 0  9991
2 67607  97.2843 113.4321 0001304  90.6702 312.1139 15.77297638  4175
STARLINK-36411          
1 67608U 26018V   26048.57358325  .00229715  00000+0  11646-2 0  9997
2 67608  97.2836 113.4238 0000455 119.8713 240.2600 15.80893099  4145
STARLINK-36312          
1 67609U 26018W   26048.58335648 -.01780461  00000+0 -12651-1 0  9991
2 67609  97.2843 113.4371 0001435  78.2593 337.3672 15.76783441  4179
STARLINK-36387          
1 67610U 26018X   26048.57094950  .00241253  00000+0  12204-2 0  9993
2 67610  97.2837 113.4271 0000758  87.4137 272.7218 15.80910896  4142
STARLINK-36636          
1 67611U 26018Y   26048.58335648  .00109218  00000+0  56480-3 0  9996
2 67611  97.2855 113.4368 0001372  96.7010 340.0654 15.80777778  4127
STARLINK-36407          
1 67612U 26018Z   26048.50567064  .00032953  00000+0  17258-3 0  9999
2 67612  97.2838 113.3639 0000653 352.8683   7.2576 15.80758666  4188
STARLINK-36597          
1 67613U 26018AA  26048.56794329  .00153554  00000+0  78623-3 0  9996
2 67613  97.2840 113.4309 0001182  35.8475 324.2873 15.80875538  4148
NEONSAT-1A              
1 67614U 26019A   26048.40443949  .00003750  00000+0  24988-3 0  9997
2 67614  97.4103 172.7115 0012097 240.5681 119.4341 15.07617915  2769
